CTC1_L_00311001-01
1 10000U 25948JK  26075.70033565  .00000000  00000+0  00000-0 0  9997
2 10000  50.0000   0.0000 0000000   0.0000   0.0000 14.60983543    12
CTC1_L_00311001-02
1 10001U 23224GM  26075.70033565  .00000000  00000+0  00000-0 0  9993
2 10001  50.0000   0.0000 0000000   0.0000  90.0000 14.60983543    12
CTC1_L_00311001-03
1 10002U 24645FN  26075.70033565  .00000000  00000+0  00000-0 0  9992
2 10002  50.0000   0.0000 0000000   0.0000 180.0000 14.60983543    13
CTC1_L_00311001-04
1 10003U 26838CW  26075.70033565  .00000000  00000+0  00000-0 0  9999
2 10003  50.0000   0.0000 0000000   0.0000 270.0000 14.60983543    14
CTC1_L_00311002-01
1 10004U 25496CS  26075.70033565  .00000000  00000+0  00000-0 0  9999
2 10004  50.0000  12.0000 0000000   0.0000  12.0000 14.60983543    12
CTC1_L_00311002-02
1 10005U 24209ZS  26075.70033565  .00000000  00000+0  00000-0 0  9991
2 10005  50.0000  12.0000 0000000   0.0000 102.0000 14.60983543    13
CTC1_L_00311002-03
1 10006U 23906YW  26075.70033565  .00000000  00000+0  00000-0 0  9995
2 10006  50.0000  12.0000 0000000   0.0000 192.0000 14.60983543    13
CTC1_L_00311002-04
1 10007U 26615QV  26075.70033565  .00000000  00000+0  00000-0 0  9996
2 10007  50.0000  12.0000 0000000   0.0000 282.0000 14.60983543    14
CTC1_L_00311003-01
1 10008U 24588LI  26075.70033565  .00000000  00000+0  00000-0 0  9994
2 10008  50.0000  24.0000 0000000   0.0000  24.0000 14.60983543    12
CTC1_L_00311003-02
1 10009U 25393QM  26075.70033565  .00000000  00000+0  00000-0 0  9990
2 10009  50.0000  24.0000 0000000   0.0000 114.0000 14.60983543    13
CTC1_L_00311003-03
1 10010U 25564NS  26075.70033565  .00000000  00000+0  00000-0 0  9992
2 10010  50.0000  24.0000 0000000   0.0000 204.0000 14.60983543    15
CTC1_L_00311003-04
1 10011U 25307ZJ  26075.70033565  .00000000  00000+0  00000-0 0  9998
2 10011  50.0000  24.0000 0000000   0.0000 294.0000 14.60983543    15
CTC1_L_00311004-01
1 10012U 23976OU  26075.70033565  .00000000  00000+0  00000-0 0  9999
2 10012  50.0000  36.0000 0000000   0.0000  36.0000 14.60983543    13
CTC1_L_00311004-02
1 10013U 24937GZ  26075.70033565  .00000000  00000+0  00000-0 0  9998
2 10013  50.0000  36.0000 0000000   0.0000 126.0000 14.60983543    14
CTC1_L_00311004-03
1 10014U 22757BE  26075.70033565  .00000000  00000+0  00000-0 0  9997
2 10014  50.0000  36.0000 0000000   0.0000 216.0000 14.60983543    15
CTC1_L_00311004-04
1 10015U 26322CI  26075.70033565  .00000000  00000+0  00000-0 0  9990
2 10015  50.0000  36.0000 0000000   0.0000 306.0000 14.60983543    16
CTC1_L_00311005-01
1 10016U 23594YL  26075.70033565  .00000000  00000+0  00000-0 0  9999
2 10016  50.0000  48.0000 0000000   0.0000  48.0000 14.60983543    13
CTC1_L_00311005-02
1 10017U 23394HV  26075.70033565  .00000000  00000+0  00000-0 0  9998
2 10017  50.0000  48.0000 0000000   0.0000 138.0000 14.60983543    14
CTC1_L_00311005-03
1 10018U 26828NG  26075.70033565  .00000000  00000+0  00000-0 0  9994
2 10018  50.0000  48.0000 0000000   0.0000 228.0000 14.60983543    15
CTC1_L_00311005-04
1 10019U 24052OT  26075.70033565  .00000000  00000+0  00000-0 0  9992
2 10019  50.0000  48.0000 0000000   0.0000 318.0000 14.60983543    16
CTC1_L_00311006-01
1 10020U 23739AM  26075.70033565  .00000000  00000+0  00000-0 0  9995
2 10020  50.0000  60.0000 0000000   0.0000  60.0000 14.60983543    16
CTC1_L_00311006-02
1 10021U 22463NN  26075.70033565  .00000000  00000+0  00000-0 0  9999
2 10021  50.0000  60.0000 0000000   0.0000 150.0000 14.60983543    17
CTC1_L_00311006-03
1 10022U 23296QN  26075.70033565  .00000000  00000+0  00000-0 0  9995
2 10022  50.0000  60.0000 0000000   0.0000 240.0000 14.60983543    18
CTC1_L_00311006-04
1 10023U 26741EV  26075.70033565  .00000000  00000+0  00000-0 0  9994
2 10023  50.0000  60.0000 0000000   0.0000 330.0000 14.60983543    19
CTC1_L_00311007-01
1 10024U 26207PG  26075.70033565  .00000000  00000+0  00000-0 0  9992
2 10024  50.0000  72.0000 0000000   0.0000  72.0000 14.60983543    16
CTC1_L_00311007-02
1 10025U 23575EW  26075.70033565  .00000000  00000+0  00000-0 0  9998
2 10025  50.0000  72.0000 0000000   0.0000 162.0000 14.60983543    17
CTC1_L_00311007-03
1 10026U 24296OB  26075.70033565  .00000000  00000+0  00000-0 0  9990
2 10026  50.0000  72.0000 0000000   0.0000 252.0000 14.60983543    18
CTC1_L_00311007-04
1 10027U 23076CP  26075.70033565  .00000000  00000+0  00000-0 0  9996
2 10027  50.0000  72.0000 0000000   0.0000 342.0000 14.60983543    19
CTC1_L_00311008-01
1 10028U 26538AY  26075.70033565  .00000000  00000+0  00000-0 0  9993
2 10028  50.0000  84.0000 0000000   0.0000  84.0000 14.60983543    16
CTC1_L_00311008-02
1 10029U 23576EI  26075.70033565  .00000000  00000+0  00000-0 0  9993
2 10029  50.0000  84.0000 0000000   0.0000 174.0000 14.60983543    17
CTC1_L_00311008-03
1 10030U 24256HP  26075.70033565  .00000000  00000+0  00000-0 0  9991
2 10030  50.0000  84.0000 0000000   0.0000 264.0000 14.60983543    19
CTC1_L_00311008-04
1 10031U 23700FV  26075.70033565  .00000000  00000+0  00000-0 0  9995
2 10031  50.0000  84.0000 0000000   0.0000 354.0000 14.60983543    10
CTC1_L_00311009-01
1 10032U 25438BH  26075.70033565  .00000000  00000+0  00000-0 0  9996
2 10032  50.0000  96.0000 0000000   0.0000  96.0000 14.60983543    17
CTC1_L_00311009-02
1 10033U 26623GI  26075.70033565  .00000000  00000+0  00000-0 0  9994
2 10033  50.0000  96.0000 0000000   0.0000 186.0000 14.60983543    18
CTC1_L_00311009-03
1 10034U 26540WZ  26075.70033565  .00000000  00000+0  00000-0 0  9993
2 10034  50.0000  96.0000 0000000   0.0000 276.0000 14.60983543    19
CTC1_L_00311009-04
1 10035U 22567LO  26075.70033565  .00000000  00000+0  00000-0 0  9999
2 10035  50.0000  96.0000 0000000   0.0000   6.0000 14.60983543    11
CTC1_L_00311010-01
1 10036U 23261HN  26075.70033565  .00000000  00000+0  00000-0 0  9992
2 10036  50.0000 108.0000 0000000   0.0000 108.0000 14.60983543    19
CTC1_L_00311010-02
1 10037U 25942PE  26075.70033565  .00000000  00000+0  00000-0 0  9991
2 10037  50.0000 108.0000 0000000   0.0000 198.0000 14.60983543    19
CTC1_L_00311010-03
1 10038U 23301CA  26075.70033565  .00000000  00000+0  00000-0 0  9999
2 10038  50.0000 108.0000 0000000   0.0000 288.0000 14.60983543    10
CTC1_L_00311010-04
1 10039U 22729IR  26075.70033565  .00000000  00000+0  00000-0 0  9993
2 10039  50.0000 108.0000 0000000   0.0000  18.0000 14.60983543    12
CTC1_L_00311011-01
1 10040U 26576HF  26075.70033565  .00000000  00000+0  00000-0 0  9999
2 10040  50.0000 120.0000 0000000   0.0000 120.0000 14.60983543    12
CTC1_L_00311011-02
1 10041U 22358YV  26075.70033565  .00000000  00000+0  00000-0 0  9994
2 10041  50.0000 120.0000 0000000   0.0000 210.0000 14.60983543    13
CTC1_L_00311011-03
1 10042U 23416MN  26075.70033565  .00000000  00000+0  00000-0 0  9991
2 10042  50.0000 120.0000 0000000   0.0000 300.0000 14.60983543    14
CTC1_L_00311011-04
1 10043U 26320RH  26075.70033565  .00000000  00000+0  00000-0 0  9999
2 10043  50.0000 120.0000 0000000   0.0000  30.0000 14.60983543    15
CTC1_L_00311012-01
1 10044U 24165DK  26075.70033565  .00000000  00000+0  00000-0 0  9995
2 10044  50.0000 132.0000 0000000   0.0000 132.0000 14.60983543    12
CTC1_L_00311012-02
1 10045U 25209RF  26075.70033565  .00000000  00000+0  00000-0 0  9996
2 10045  50.0000 132.0000 0000000   0.0000 222.0000 14.60983543    13
CTC1_L_00311012-03
1 10046U 26778X   26075.70033565  .00000000  00000+0  00000-0 0  9999
2 10046  50.0000 132.0000 0000000   0.0000 312.0000 14.60983543    14
CTC1_L_00311012-04
1 10047U 24329EA  26075.70033565  .00000000  00000+0  00000-0 0  9990
2 10047  50.0000 132.0000 0000000   0.0000  42.0000 14.60983543    15
CTC1_L_00311013-01
1 10048U 24046ST  26075.70033565  .00000000  00000+0  00000-0 0  9997
2 10048  50.0000 144.0000 0000000   0.0000 144.0000 14.60983543    12
CTC1_L_00311013-02
1 10049U 22282TR  26075.70033565  .00000000  00000+0  00000-0 0  9998
2 10049  50.0000 144.0000 0000000   0.0000 234.0000 14.60983543    13
CTC1_L_00311013-03
1 10050U 24449MV  26075.70033565  .00000000  00000+0  00000-0 0  9997
2 10050  50.0000 144.0000 0000000   0.0000 324.0000 14.60983543    15
CTC1_L_00311013-04
1 10051U 22475PS  26075.70033565  .00000000  00000+0  00000-0 0  9995
2 10051  50.0000 144.0000 0000000   0.0000  54.0000 14.60983543    16
CTC1_L_00311014-01
1 10052U 26513FT  26075.70033565  .00000000  00000+0  00000-0 0  9993
2 10052  50.0000 156.0000 0000000   0.0000 156.0000 14.60983543    13
CTC1_L_00311014-02
1 10053U 26040ED  26075.70033565  .00000000  00000+0  00000-0 0  9999
2 10053  50.0000 156.0000 0000000   0.0000 246.0000 14.60983543    14
CTC1_L_00311014-03
1 10054U 24950AX  26075.70033565  .00000000  00000+0  00000-0 0  9998
2 10054  50.0000 156.0000 0000000   0.0000 336.0000 14.60983543    15
CTC1_L_00311014-04
1 10055U 24115NS  26075.70033565  .00000000  00000+0  00000-0 0  9992
2 10055  50.0000 156.0000 0000000   0.0000  66.0000 14.60983543    16
CTC1_L_00311015-01
1 10056U 25573BY  26075.70033565  .00000000  00000+0  00000-0 0  9992
2 10056  50.0000 168.0000 0000000   0.0000 168.0000 14.60983543    13
CTC1_L_00311015-02
1 10057U 25510QX  26075.70033565  .00000000  00000+0  00000-0 0  9994
2 10057  50.0000 168.0000 0000000   0.0000 258.0000 14.60983543    14
CTC1_L_00311015-03
1 10058U 26033KW  26075.70033565  .00000000  00000+0  00000-0 0  9996
2 10058  50.0000 168.0000 0000000   0.0000 348.0000 14.60983543    15
CTC1_L_00311015-04
1 10059U 26583DS  26075.70033565  .00000000  00000+0  00000-0 0  9997
2 10059  50.0000 168.0000 0000000   0.0000  78.0000 14.60983543    16
CTC1_L_00311016-01
1 10060U 26328AI  26075.70033565  .00000000  00000+0  00000-0 0  9996
2 10060  50.0000 180.0000 0000000   0.0000 180.0000 14.60983543    16
CTC1_L_00311016-02
1 10061U 23243VJ  26075.70033565  .00000000  00000+0  00000-0 0  9990
2 10061  50.0000 180.0000 0000000   0.0000 270.0000 14.60983543    17
